{"type": "FeatureCollection", "features": [ {"type": "Feature", "properties": {"norad_id": 56950, "name": "BLACKJACK ACES-3", "group": "active", "lat": -43.02049182581317, "lon": -83.34677854480042, "alt_km": 508.63237656756064, "timestamp": "2025-12-01T03:58:49.268126+00:00", "meta": {"OBJECT_NAME": "BLACKJACK ACES-3", "OBJECT_ID": "2023-084U", "EPOCH": "2025-11-30T19:06:31.250592", "MEAN_MOTION": 15.21470569, "ECCENTRICITY": 0.0007335, "INCLINATION": 97.595, "RA_OF_ASC_NODE": 103.4332, "ARG_OF_PERICENTER": 320.9054, "MEAN_ANOMALY": 39.1651, "EPHEMERIS_TYPE": 0, "CLASSIFICATION_TYPE": "U", "NORAD_CAT_ID": 56950, "ELEMENT_SET_NO": 999, "REV_AT_EPOCH": 13703, "BSTAR": 0.00038663, "MEAN_MOTION_DOT": 8.629e-05, "MEAN_MOTION_DDOT": 0, "GROUP": "active"}, "tle": {"line1": "1 56950U 23084U   25334.79619503  .00008629  00000+0  38663-3 0  9992", "line2": "2 56950  97.5950 103.4332 0007335 320.9054  39.1651 15.21470569137038"}}, "geometry": {"type": "Point", "coordinates": [-83.34677854480042, -43.02049182581317]}}, {"type": "Feature", "properties": {"norad_id": 56952, "name": "BLACKJACK ACES-4", "group": "active", "lat": 38.25748988757725, "lon": -51.53126367623856, "alt_km": 335.46320019414634, "timestamp": "2025-12-01T03:58:49.268136+00:00", "meta": {"OBJECT_NAME": "BLACKJACK ACES-4", "OBJECT_ID": "2023-084W", "EPOCH": "2025-11-30T10:38:12.805728", "MEAN_MOTION": 15.77440066, "ECCENTRICITY": 0.00057119, "INCLINATION": 97.58, "RA_OF_ASC_NODE": 121.6493, "ARG_OF_PERICENTER": 249.3942, "MEAN_ANOMALY": 110.6711, "EPHEMERIS_TYPE": 0, "CLASSIFICATION_TYPE": "U", "NORAD_CAT_ID": 56952, "ELEMENT_SET_NO": 999, "REV_AT_EPOCH": 13818, "BSTAR": 0.0008089138, "MEAN_MOTION_DOT": 0.00135229, "MEAN_MOTION_DDOT": 0, "GROUP": "active"}, "tle": {"line1": "1 56952U 23084W   25334.44320377  .00135229  00000+0  80891-3 0  9991", "line2": "2 56952  97.5800 121.6493 0005711 249.3942 110.6711 15.77440066138189"}}, "geometry": {"type": "Point", "coordinates": [-51.53126367623856, 38.25748988757725]}}, {"type": "Feature", "properties": {"norad_id": 56953, "name": "RUNNER-1 (TYVAK-1005)", "group": "active", "lat": 79.99546547154648, "lon": 56.6503822234764, "alt_km": 463.7523043486026, "timestamp": "2025-12-01T03:58:49.268147+00:00", "meta": {"OBJECT_NAME": "RUNNER-1 (TYVAK-1005)", "OBJECT_ID": "2023-084X", "EPOCH": "2025-11-30T19:47:02.137056", "MEAN_MOTION": 15.32851396, "ECCENTRICITY": 0.0007527, "INCLINATION": 97.5974, "RA_OF_ASC_NODE": 105.4679, "ARG_OF_PERICENTER": 306.4128, "MEAN_ANOMALY": 53.6419, "EPHEMERIS_TYPE": 0, "CLASSIFICATION_TYPE": "U", "NORAD_CAT_ID": 56953, "ELEMENT_SET_NO": 999, "REV_AT_EPOCH": 13716, "BSTAR": 0.00036643, "MEAN_MOTION_DOT": 0.00011559, "MEAN_MOTION_DDOT": 0, "GROUP": "active"}, "tle": {"line1": "1 56953U 23084X   25334.82433029  .00011559  00000+0  36643-3 0  9998", "line2": "2 56953  97.5974 105.4679 0007527 306.4128  53.6419 15.32851396137167"}}, "geometry": {"type": "Point", "coordinates": [56.6503822234764, 79.99546547154648]}}, {"type": "Feature", "properties": {"norad_id": 56955, "name": "BLACKJACK ACES-2", "group": "active", "lat": -30.738815940402304, "lon": -80.64955636245605, "alt_km": 510.30122821383065, "timestamp": "2025-12-01T03:58:49.268157+00:00", "meta": {"OBJECT_NAME": "BLACKJACK ACES-2", "OBJECT_ID": "2023-084Z", "EPOCH": "2025-11-30T19:09:35.196192", "MEAN_MOTION": 15.20853191, "ECCENTRICITY": 0.00071, "INCLINATION": 97.5954, "RA_OF_ASC_NODE": 103.5314, "ARG_OF_PERICENTER": 313.8601, "MEAN_ANOMALY": 46.2046, "EPHEMERIS_TYPE": 0, "CLASSIFICATION_TYPE": "U", "NORAD_CAT_ID": 56955, "ELEMENT_SET_NO": 999, "REV_AT_EPOCH": 13704, "BSTAR": 0.00048605, "MEAN_MOTION_DOT": 0.00010674, "MEAN_MOTION_DDOT": 0, "GROUP": "active"}, "tle": {"line1": "1 56955U 23084Z   25334.79832403  .00010674  00000+0  48605-3 0  9993", "line2": "2 56955  97.5954 103.5314 0007100 313.8601  46.2046 15.20853191137040"}}, "geometry": {"type": "Point", "coordinates": [-80.64955636245605, -30.738815940402304]}}, {"type": "Feature", "properties": {"norad_id": 56956, "name": "BLACKJACK ACES-1", "group": "active", "lat": -50.54989134400102, "lon": -85.63201583945518, "alt_km": 502.8440657766523, "timestamp": "2025-12-01T03:58:49.268168+00:00", "meta": {"OBJECT_NAME": "BLACKJACK ACES-1", "OBJECT_ID": "2023-084AA", "EPOCH": "2025-11-30T19:05:05.691264", "MEAN_MOTION": 15.23151784, "ECCENTRICITY": 0.000585, "INCLINATION": 97.5926, "RA_OF_ASC_NODE": 103.3222, "ARG_OF_PERICENTER": 316.3371, "MEAN_ANOMALY": 43.7402, "EPHEMERIS_TYPE": 0, "CLASSIFICATION_TYPE": "U", "NORAD_CAT_ID": 56956, "ELEMENT_SET_NO": 999, "REV_AT_EPOCH": 8676, "BSTAR": 0.00059063, "MEAN_MOTION_DOT": 0.00013898, "MEAN_MOTION_DDOT": 0, "GROUP": "active"}, "tle": {"line1": "1 56956U 23084AA  25334.79520476  .00013898  00000+0  59063-3 0  9999", "line2": "2 56956  97.5926 103.3222 0005850 316.3371  43.7402 15.23151784 86760"}}, "geometry": {"type": "Point", "coordinates": [-85.63201583945518, -50.54989134400102]}}, {"type": "Feature", "properties": {"norad_id": 56957, "name": "ION SCV-011", "group": "active", "lat": -61.506077416885304, "lon": -55.70835793481282, "alt_km": 498.0940217292273, "timestamp": "2025-12-01T03:58:49.268178+00:00", "meta": {"OBJECT_NAME": "ION SCV-011", "OBJECT_ID": "2023-084AB", "EPOCH": "2025-11-30T17:28:44.865120", "MEAN_MOTION": 15.26149911, "ECCENTRICITY": 0.0007904, "INCLINATION": 98.1268, "RA_OF_ASC_NODE": 139.0793, "ARG_OF_PERICENTER": 15.6018, "MEAN_ANOMALY": 344.546, "EPHEMERIS_TYPE": 0, "CLASSIFICATION_TYPE": "U", "NORAD_CAT_ID": 56957, "ELEMENT_SET_NO": 999, "REV_AT_EPOCH": 13551, "BSTAR": 0.00028675, "MEAN_MOTION_DOT": 7.329e-05, "MEAN_MOTION_DDOT": 0, "GROUP": "active"}, "tle": {"line1": "1 56957U 23084AB  25334.72829705  .00007329  00000+0  28675-3 0  9997", "line2": "2 56957  98.1268 139.0793 0007904  15.6018 344.5460 15.26149911135511"}}, "geometry": {"type": "Point", "coordinates": [-55.70835793481282, -61.506077416885304]}}, {"type": "Feature", "properties": {"norad_id": 56958, "name": "GHOST-3", "group": "active", "lat": -82.26615687143955, "lon": -171.0192706661861, "alt_km": 449.5998801194364, "timestamp": "2025-12-01T03:58:49.268188+00:00", "meta": {"OBJECT_NAME": "GHOST-3", "OBJECT_ID": "2023-084AC", "EPOCH": "2025-11-30T08:05:17.943936", "MEAN_MOTION": 15.39754428, "ECCENTRICITY": 0.00069756, "INCLINATION": 97.5964, "RA_OF_ASC_NODE": 108.7897, "ARG_OF_PERICENTER": 293.6693, "MEAN_ANOMALY": 66.382, "EPHEMERIS_TYPE": 0, "CLASSIFICATION_TYPE": "U", "NORAD_CAT_ID": 56958, "ELEMENT_SET_NO": 999, "REV_AT_EPOCH": 13733, "BSTAR": 0.00052343348, "MEAN_MOTION_DOT": 0.00020675, "MEAN_MOTION_DDOT": 0, "GROUP": "active"}, "tle": {"line1": "1 56958U 23084AC  25334.33701324  .00020675  00000+0  52343-3 0  9999", "line2": "2 56958  97.5964 108.7897 0006975 293.6693  66.3820 15.39754428137330"}}, "geometry": {"type": "Point", "coordinates": [-171.0192706661861, -82.26615687143955]}}, {"type": "Feature", "properties": {"norad_id": 56960, "name": "ORBITER SN3", "group": "active", "lat": 1.5564837540241343, "lon": -74.52093269729679, "alt_km": 480.9060375705876, "timestamp": "2025-12-01T03:58:49.268198+00:00", "meta": {"OBJECT_NAME": "ORBITER SN3", "OBJECT_ID": "2023-084AE", "EPOCH": "2025-11-30T20:55:39.988704", "MEAN_MOTION": 15.3071888, "ECCENTRICITY": 0.0007905, "INCLINATION": 97.6005, "RA_OF_ASC_NODE": 104.9703, "ARG_OF_PERICENTER": 322.9924, "MEAN_ANOMALY": 37.077, "EPHEMERIS_TYPE": 0, "CLASSIFICATION_TYPE": "U", "NORAD_CAT_ID": 56960, "ELEMENT_SET_NO": 999, "REV_AT_EPOCH": 13711, "BSTAR": 0.00029863, "MEAN_MOTION_DOT": 8.796e-05, "MEAN_MOTION_DDOT": 0, "GROUP": "active"}, "tle": {"line1": "1 56960U 23084AE  25334.87199061  .00008796  00000+0  29863-3 0  9991", "line2": "2 56960  97.6005 104.9703 0007905 322.9924  37.0770 15.30718880137119"}}, "geometry": {"type": "Point", "coordinates": [-74.52093269729679, 1.5564837540241343]}}, {"type": "Feature", "properties": {"norad_id": 56961, "name": "ICEYE-X26", "group": "active", "lat": -57.189311363364766, "lon": 129.9658787005951, "alt_km": 388.1690325301097, "timestamp": "2025-12-01T03:58:49.268208+00:00", "meta": {"OBJECT_NAME": "ICEYE-X26", "OBJECT_ID": "2023-084AF", "EPOCH": "2025-11-30T08:14:38.271264", "MEAN_MOTION": 15.62229028, "ECCENTRICITY": 1e-06, "INCLINATION": 97.5727, "RA_OF_ASC_NODE": 117.1774, "ARG_OF_PERICENTER": 107.0533, "MEAN_ANOMALY": 253.0725, "EPHEMERIS_TYPE": 0, "CLASSIFICATION_TYPE": "U", "NORAD_CAT_ID": 56961, "ELEMENT_SET_NO": 999, "REV_AT_EPOCH": 13794, "BSTAR": 0.00049005086, "MEAN_MOTION_DOT": 0.00043151, "MEAN_MOTION_DDOT": 0, "GROUP": "active"}, "tle": {"line1": "1 56961U 23084AF  25334.34349851  .00043151  00000+0  49005-3 0  9992", "line2": "2 56961  97.5727 117.1774 0000010 107.0533 253.0725 15.62229028137949"}}, "geometry": {"type": "Point", "coordinates": [129.9658787005951, -57.189311363364766]}}, {"type": "Feature", "properties": {"norad_id": 56962, "name": "TOMORROW-R2", "group": "active", "lat": 32.36114541736199, "lon": -59.02593990343638, "alt_km": 396.684379676135, "timestamp": "2025-12-01T03:58:49.268218+00:00", "meta": {"OBJECT_NAME": "TOMORROW-R2", "OBJECT_ID": "2023-084AG", "EPOCH": "2025-11-30T19:38:09.353184", "MEAN_MOTION": 15.56706463, "ECCENTRICITY": 0.0005582, "INCLINATION": 97.5861, "RA_OF_ASC_NODE": 115.7599, "ARG_OF_PERICENTER": 260.0393, "MEAN_ANOMALY": 100.0231, "EPHEMERIS_TYPE": 0, "CLASSIFICATION_TYPE": "U", "NORAD_CAT_ID": 56962, "ELEMENT_SET_NO": 999, "REV_AT_EPOCH": 13784, "BSTAR": 0.00072443, "MEAN_MOTION_DOT": 0.00051891, "MEAN_MOTION_DDOT": 0, "GROUP": "active"}, "tle": {"line1": "1 56962U 23084AG  25334.81816381  .00051891  00000+0  72443-3 0  9994", "line2": "2 56962  97.5861 115.7599 0005582 260.0393 100.0231 15.56706463137849"}}, "geometry": {"type": "Point", "coordinates": [-59.02593990343638, 32.36114541736199]}}]}